[Satellite]
VERSION=1.1
NAME=DIDO-2
NICKNAME=DIDO-2
TLE1=1 42000U 17008BE  20157.69140618  .00000707  00000-0  31660-4 0  9996
TLE2=2 42000  97.3555 222.8127 0008623  13.7919 346.3553 15.24461442182974
STATUS=0
